62849,STARLINK-32809,2025,94.27,-1.0,+,43.0,Active,0,LEO,USA,USA,Unknown,Unknown,Unknown,1 62849U 25019W   25280.28778155  .00028325  00000+0  10341-2 0  9996,2 62849  43.0029 235.0086 0001729 262.6414  97.4241 15.27603731 38796,15.27603731,0.0001729,LEO
62854,STARLINK-32868,2025,94.11,-1.0,+,53.16,Active,0,LEO,USA,USA,Unknown,Unknown,Unknown,1 62854U 25022A   25280.58303765  .00029264  00000+0  99571-3 0  9996,2 62854  53.1580 120.4349 0001618  95.4382 264.6803 15.30218875 39279,15.30218875,0.0001618,LEO
62855,STARLINK-32867,2025,94.1,-1.0,+,53.16,Active,0,LEO,USA,USA,Unknown,Unknown,Unknown,1 62855U 25022B   25280.58620276  .00031343  00000+0  10659-2 0  9996,2 62855  53.1614 120.4420 0001471  69.2325 290.8834 15.30201468 38466,15.30201468,0.0001471,LEO
62856,STARLINK-32860,2025,94.11,-1.0,+,53.16,Active,0,LEO,USA,USA,Unknown,Unknown,Unknown,1 62856U 25022C   25280.57471026  .00023189  00000+0  79108-3 0  9997,2 62856  53.1573 121.0908 0002863  98.0829 262.0497 15.30261393 38452,15.30261393,0.0002863,LEO
62857,STARLINK-32873,2025,94.1,-1.0,+,53.16,Active,0,LEO,USA,USA,Unknown,Unknown,Unknown,1 62857U 25022D   25280.57365344  .00040500  00000+0  13705-2 0  9999,2 62857  53.1562 121.0896 0001092  87.7847 272.3279 15.30238381 38458,15.30238381,0.0001092,LEO
62858,STARLINK-32866,2025,94.1,-1.0,+,53.16,Active,0,LEO,USA,USA,Unknown,Unknown,Unknown,1 62858U 25022E   25280.59042167  .00027945  00000+0  95132-3 0  9990,2 62858  53.1576 120.4762 0000802 110.6590 249.4497 15.30226360 38460,15.3022636,8.02e-05,LEO
62859,STARLINK-32869,2025,94.1,-1.0,+,53.16,Active,0,LEO,USA,USA,Unknown,Unknown,Unknown,1 62859U 25022F   25280.53671781  .00027931  00000+0  95100-3 0  9995,2 62859  53.1571 120.8430 0002477  80.0288 280.0993 15.30219954 38458,15.30219954,0.0002477,LEO
62860,STARLINK-32831,2025,94.1,-1.0,+,53.16,Active,0,LEO,USA,USA,Unknown,Unknown,Unknown,1 62860U 25022G   25280.54515927  .00026822  00000+0  91369-3 0  9998,2 62860  53.1565 120.9101 0001509  90.8047 269.3127 15.30227278 38442,15.30227278,0.0001509,LEO
62861,STARLINK-32859,2025,94.11,-1.0,+,53.16,Active,0,LEO,USA,USA,Unknown,Unknown,Unknown,1 62861U 25022H   25280.57893042  .00031382  00000+0  10661-2 0  9991,2 62861  53.1573 121.1125 0000824 338.4914  21.6052 15.30235203 38458,15.30235203,8.24e-05,LEO
62862,STARLINK-32864,2025,94.11,-1.0,+,53.16,Active,0,LEO,USA,USA,Unknown,Unknown,Unknown,1 62862U 25022J   25280.28179977  .00029605  00000+0  10077-2 0  9990,2 62862  53.1546 122.0981 0003245  82.7066 277.4303 15.30198139 38418,15.30198139,0.0003245,LEO
62863,STARLINK-32808,2025,94.1,-1.0,+,53.16,Active,0,LEO,USA,USA,Unknown,Unknown,Unknown,1 62863U 25022K   25280.56520281  .00047457  00000+0  16018-2 0  9996,2 62863  53.1566 121.0318 0001729  91.2381 268.8818 15.30248815 38450,15.30248815,0.0001729,LEO
62864,STARLINK-32862,2025,94.1,-1.0,+,53.16,Active,0,LEO,USA,USA,Unknown,Unknown,Unknown,1 62864U 25022L   25280.57048777  .00048343  00000+0  16321-2 0  9995,2 62864  53.1542 121.0674 0001833  90.0713 270.0498 15.30232487 38459,15.30232487,0.0001833,LEO
62865,STARLINK-32841,2025,94.1,-1.0,+,53.16,Active,0,LEO,USA,USA,Unknown,Unknown,Unknown,1 62865U 25022M   25280.55043826  .00026766  00000+0  91212-3 0  9992,2 62865  53.1565 120.9450 0001634  86.9945 273.1243 15.30215575 38445,15.30215575,0.0001634,LEO
62866,STARLINK-32695,2025,94.11,-1.0,+,53.16,Active,0,LEO,USA,USA,Unknown,Unknown,Unknown,1 62866U 25022N   25280.58725648  .00030710  00000+0  10439-2 0  9990,2 62866  53.1581 120.4586 0000981  97.0318 263.0795 15.30225436 38469,15.30225436,9.81e-05,LEO
62867,STARLINK-32846,2025,94.11,-1.0,+,53.16,Active,0,LEO,USA,USA,Unknown,Unknown,Unknown,1 62867U 25022P   25280.54093931  .00028628  00000+0  97431-3 0  9993,2 62867  53.1556 120.8694 0002273  77.7076 282.4179 15.30221467 38458,15.30221467,0.0002273,LEO
62868,STARLINK-32822,2025,94.1,-1.0,+,53.16,Active,0,LEO,USA,USA,Unknown,Unknown,Unknown,1 62868U 25022Q   25280.55360388  .00030507  00000+0  10382-2 0  9996,2 62868  53.1570 120.9607 0001633  99.2265 260.8921 15.30189954 38457,15.30189954,0.0001633,LEO
