[{"OBJECT_NAME":"STARLINK-32809","OBJECT_ID":"2025-019W","EPOCH":"2025-10-07T06:54:24.325920","MEAN_MOTION":15.27603731,"ECCENTRICITY":0.00017295,"INCLINATION":43.0029,"RA_OF_ASC_NODE":235.0086,"ARG_OF_PERICENTER":262.6414,"MEAN_ANOMALY":97.4241,"EPHEMERIS_TYPE":0,"CLASSIFICATION_TYPE":"U","NORAD_CAT_ID":62849,"ELEMENT_SET_NO":999,"REV_AT_EPOCH":3879,"BSTAR":0.0010341248,"MEAN_MOTION_DOT":0.00028325,"MEAN_MOTION_DDOT":0},{"OBJECT_NAME":"STARLINK-32868","OBJECT_ID":"2025-022A","EPOCH":"2025-10-07T13:59:34.452960","MEAN_MOTION":15.30218875,"ECCENTRICITY":0.00016187,"INCLINATION":53.158,"RA_OF_ASC_NODE":120.4349,"ARG_OF_PERICENTER":95.4382,"MEAN_ANOMALY":264.6803,"EPHEMERIS_TYPE":0,"CLASSIFICATION_TYPE":"U","NORAD_CAT_ID":62854,"ELEMENT_SET_NO":999,"REV_AT_EPOCH":3927,"BSTAR":0.00099571064,"MEAN_MOTION_DOT":0.00029264,"MEAN_MOTION_DDOT":0},{"OBJECT_NAME":"STARLINK-32867","OBJECT_ID":"2025-022B","EPOCH":"2025-10-07T14:04:07.918464","MEAN_MOTION":15.30201468,"ECCENTRICITY":0.00014714,"INCLINATION":53.1614,"RA_OF_ASC_NODE":120.442,"ARG_OF_PERICENTER":69.2325,"MEAN_ANOMALY":290.8834,"EPHEMERIS_TYPE":0,"CLASSIFICATION_TYPE":"U","NORAD_CAT_ID":62855,"ELEMENT_SET_NO":999,"REV_AT_EPOCH":3846,"BSTAR":0.0010658633,"MEAN_MOTION_DOT":0.00031343,"MEAN_MOTION_DDOT":0},{"OBJECT_NAME":"STARLINK-32860","OBJECT_ID":"2025-022C","EPOCH":"2025-10-07T13:47:34.966464","MEAN_MOTION":15.30261393,"ECCENTRICITY":0.00028638,"INCLINATION":53.1573,"RA_OF_ASC_NODE":121.0908,"ARG_OF_PERICENTER":98.0829,"MEAN_ANOMALY":262.0497,"EPHEMERIS_TYPE":0,"CLASSIFICATION_TYPE":"U","NORAD_CAT_ID":62856,"ELEMENT_SET_NO":999,"REV_AT_EPOCH":3845,"BSTAR":0.00079107677,"MEAN_MOTION_DOT":0.00023189,"MEAN_MOTION_DDOT":0},{"OBJECT_NAME":"STARLINK-32873","OBJECT_ID":"2025-022D","EPOCH":"2025-10-07T13:46:03.657216","MEAN_MOTION":15.30238381,"ECCENTRICITY":0.00010926,"INCLINATION":53.1562,"RA_OF_ASC_NODE":121.0896,"ARG_OF_PERICENTER":87.7847,"MEAN_ANOMALY":272.3279,"EPHEMERIS_TYPE":0,"CLASSIFICATION_TYPE":"U","NORAD_CAT_ID":62857,"ELEMENT_SET_NO":999,"REV_AT_EPOCH":3845,"BSTAR":0.0013704713,"MEAN_MOTION_DOT":0.000405,"MEAN_MOTION_DDOT":0},{"OBJECT_NAME":"STARLINK-32866","OBJECT_ID":"2025-022E","EPOCH":"2025-10-07T14:10:12.432288","MEAN_MOTION":15.3022636,"ECCENTRICITY":8.029e-5,"INCLINATION":53.1576,"RA_OF_ASC_NODE":120.4762,"ARG_OF_PERICENTER":110.659,"MEAN_ANOMALY":249.4497,"EPHEMERIS_TYPE":0,"CLASSIFICATION_TYPE":"U","NORAD_CAT_ID":62858,"ELEMENT_SET_NO":999,"REV_AT_EPOCH":3846,"BSTAR":0.00095131999,"MEAN_MOTION_DOT":0.00027945,"MEAN_MOTION_DDOT":0},{"OBJECT_NAME":"STARLINK-32869","OBJECT_ID":"2025-022F","EPOCH":"2025-10-07T12:52:52.418784","MEAN_MOTION":15.30219954,"ECCENTRICITY":0.00024771,"INCLINATION":53.1571,"RA_OF_ASC_NODE":120.843,"ARG_OF_PERICENTER":80.0288,"MEAN_ANOMALY":280.0993,"EPHEMERIS_TYPE":0,"CLASSIFICATION_TYPE":"U","NORAD_CAT_ID":62859,"ELEMENT_SET_NO":999,"REV_AT_EPOCH":3845,"BSTAR":0.0009510044,"MEAN_MOTION_DOT":0.00027931,"MEAN_MOTION_DDOT":0},{"OBJECT_NAME":"STARLINK-32831","OBJECT_ID":"2025-022G","EPOCH":"2025-10-07T13:05:01.760928","MEAN_MOTION":15.30227278,"ECCENTRICITY":0.00015099,"INCLINATION":53.1565,"RA_OF_ASC_NODE":120.9101,"ARG_OF_PERICENTER":90.8047,"MEAN_ANOMALY":269.3127,"EPHEMERIS_TYPE":0,"CLASSIFICATION_TYPE":"U","NORAD_CAT_ID":62860,"ELEMENT_SET_NO":999,"REV_AT_EPOCH":3844,"BSTAR":0.00091369381,"MEAN_MOTION_DOT":0.00026822,"MEAN_MOTION_DDOT":0},{"OBJECT_NAME":"STARLINK-32859","OBJECT_ID":"2025-022H","EPOCH":"2025-10-07T13:53:39.588288","MEAN_MOTION":15.30235203,"ECCENTRICITY":8.247e-5,"INCLINATION":53.1573,"RA_OF_ASC_NODE":121.1125,"ARG_OF_PERICENTER":338.4914,"MEAN_ANOMALY":21.6052,"EPHEMERIS_TYPE":0,"CLASSIFICATION_TYPE":"U","NORAD_CAT_ID":62861,"ELEMENT_SET_NO":999,"REV_AT_EPOCH":3845,"BSTAR":0.0010660572,"MEAN_MOTION_DOT":0.00031382,"MEAN_MOTION_DDOT":0},{"OBJECT_NAME":"STARLINK-32864","OBJECT_ID":"2025-022J","EPOCH":"2025-10-07T06:45:47.500128","MEAN_MOTION":15.30198139,"ECCENTRICITY":0.00032456,"INCLINATION":53.1546,"RA_OF_ASC_NODE":122.0981,"ARG_OF_PERICENTER":82.7066,"MEAN_ANOMALY":277.4303,"EPHEMERIS_TYPE":0,"CLASSIFICATION_TYPE":"U","NORAD_CAT_ID":62862,"ELEMENT_SET_NO":999,"REV_AT_EPOCH":3841,"BSTAR":0.0010076902,"MEAN_MOTION_DOT":0.00029605,"MEAN_MOTION_DDOT":0},{"OBJECT_NAME":"STARLINK-32808","OBJECT_ID":"2025-022K","EPOCH":"2025-10-07T13:33:53.522784","MEAN_MOTION":15.30248815,"ECCENTRICITY":0.00017292,"INCLINATION":53.1566,"RA_OF_ASC_NODE":121.0318,"ARG_OF_PERICENTER":91.2381,"MEAN_ANOMALY":268.8818,"EPHEMERIS_TYPE":0,"CLASSIFICATION_TYPE":"U","NORAD_CAT_ID":62863,"ELEMENT_SET_NO":999,"REV_AT_EPOCH":3845,"BSTAR":0.0016017808,"MEAN_MOTION_DOT":0.00047457,"MEAN_MOTION_DDOT":0},{"OBJECT_NAME":"STARLINK-32862","OBJECT_ID":"2025-022L","EPOCH":"2025-10-07T13:41:30.143328","MEAN_MOTION":15.30232487,"ECCENTRICITY":0.00018334,"INCLINATION":53.1542,"RA_OF_ASC_NODE":121.0674,"ARG_OF_PERICENTER":90.0713,"MEAN_ANOMALY":270.0498,"EPHEMERIS_TYPE":0,"CLASSIFICATION_TYPE":"U","NORAD_CAT_ID":62864,"ELEMENT_SET_NO":999,"REV_AT_EPOCH":3845,"BSTAR":0.0016320747,"MEAN_MOTION_DOT":0.00048343,"MEAN_MOTION_DDOT":0},{"OBJECT_NAME":"STARLINK-32841","OBJECT_ID":"2025-022M","EPOCH":"2025-10-07T13:12:37.865664","MEAN_MOTION":15.30215575,"ECCENTRICITY":0.00016344,"INCLINATION":53.1565,"RA_OF_ASC_NODE":120.945,"ARG_OF_PERICENTER":86.9945,"MEAN_ANOMALY":273.1243,"EPHEMERIS_TYPE":0,"CLASSIFICATION_TYPE":"U","NORAD_CAT_ID":62865,"ELEMENT_SET_NO":999,"REV_AT_EPOCH":3844,"BSTAR":0.00091212488,"MEAN_MOTION_DOT":0.00026766,"MEAN_MOTION_DDOT":0},{"OBJECT_NAME":"STARLINK-32695","OBJECT_ID":"2025-022N","EPOCH":"2025-10-07T14:05:38.959872","MEAN_MOTION":15.30225436,"ECCENTRICITY":9.816e-5,"INCLINATION":53.1581,"RA_OF_ASC_NODE":120.4586,"ARG_OF_PERICENTER":97.0318,"MEAN_ANOMALY":263.0795,"EPHEMERIS_TYPE":0,"CLASSIFICATION_TYPE":"U","NORAD_CAT_ID":62866,"ELEMENT_SET_NO":999,"REV_AT_EPOCH":3846,"BSTAR":0.0010438937,"MEAN_MOTION_DOT":0.0003071,"MEAN_MOTION_DDOT":0},{"OBJECT_NAME":"STARLINK-32846","OBJECT_ID":"2025-022P","EPOCH":"2025-10-07T12:58:57.156384","MEAN_MOTION":15.30221467,"ECCENTRICITY":0.00022735,"INCLINATION":53.1556,"RA_OF_ASC_NODE":120.8694,"ARG_OF_PERICENTER":77.7076,"MEAN_ANOMALY":282.4179,"EPHEMERIS_TYPE":0,"CLASSIFICATION_TYPE":"U","NORAD_CAT_ID":62867,"ELEMENT_SET_NO":999,"REV_AT_EPOCH":3845,"BSTAR":0.00097431286,"MEAN_MOTION_DOT":0.00028628,"MEAN_MOTION_DDOT":0},{"OBJECT_NAME":"STARLINK-32822","OBJECT_ID":"2025-022Q","EPOCH":"2025-10-07T13:17:11.375232","MEAN_MOTION":15.30189954,"ECCENTRICITY":0.00016334,"INCLINATION":53.157,"RA_OF_ASC_NODE":120.9607,"ARG_OF_PERICENTER":99.2265,"MEAN_ANOMALY":260.8921,"EPHEMERIS_TYPE":0,"CLASSIFICATION_TYPE":"U","NORAD_CAT_ID":62868,"ELEMENT_SET_NO":999,"REV_AT_EPOCH":3845,"BSTAR":0.001038234,"MEAN_MOTION_DOT":0.00030507,"MEAN_MOTION_DDOT":0}]
